[{"OBJECT_NAME":"TECHDEMOSAT-1 (TDS-1)","OBJECT_ID":"2014-037H","EPOCH":"2026-03-09T22:08:12.399936","MEAN_MOTION":15.11581991,"ECCENTRICITY":0.0004745,"INCLINATION":98.3776,"RA_OF_ASC_NODE":51.4583,"ARG_OF_PERICENTER":234.81,"MEAN_ANOMALY":125.2683,"EPHEMERIS_TYPE":0,"CLASSIFICATION_TYPE":"U","NORAD_CAT_ID":40076,"ELEMENT_SET_NO":999,"REV_AT_EPOCH":63322,"BSTAR":0.00065800271,"MEAN_MOTION_DOT":0.00011104,"MEAN_MOTION_DDOT":0},{"OBJECT_NAME":"STARLINK-4757","OBJECT_ID":"2022-114G","EPOCH":"2026-03-09T21:54:32.806944","MEAN_MOTION":15.08848756,"ECCENTRICITY":0.00012809,"INCLINATION":53.2175,"RA_OF_ASC_NODE":302.5297,"ARG_OF_PERICENTER":91.617,"MEAN_ANOMALY":268.4969,"EPHEMERIS_TYPE":0,"CLASSIFICATION_TYPE":"U","NORAD_CAT_ID":53824,"ELEMENT_SET_NO":999,"REV_AT_EPOCH":19278,"BSTAR":0.00015977517,"MEAN_MOTION_DOT":2.256e-5,"MEAN_MOTION_DDOT":0}]
